{"fetched_at":"2026-04-08T20:46:07Z","count":9901,"tles":[{"name":"FLOCK 4BE-20","line1":"1 60489U 24149X   26098.20027970  .00014567  00000+0  41385-3 0  9995","line2":"2 60489  97.3706 180.0292 0004951 146.0609 214.0953 15.36269454 91467","category":"Other"},{"name":"STARLINK-30266","line1":"1 57529U 23115J   26097.98327236 -.00003585  00000+0 -12092-3 0  9993","line2":"2 57529  43.0018 195.9717 0001123 267.6661  92.4062 15.27550846146834","category":"Starlink"},{"name":"STARLINK-33947","line1":"1 63787U 25091N   26097.43211771  .00013346  00000+0  49342-3 0  9999","line2":"2 63787  42.9997 250.5819 0001563 253.4474 106.6206 15.27594240 53296","category":"Starlink"},{"name":"STARLINK-35949","line1":"1 66630U 25271P   26097.13388996  .00029016  00000+0  98738-3 0  9994","line2":"2 66630  53.1601   7.6676 0001276  82.2625 277.8520 15.30219820 21928","category":"Starlink"},{"name":"STARLINK-32593","line1":"1 61974U 24210R   26098.16884934  .00031961  00000+0  11649-2 0  9996","line2":"2 61974  43.0038  13.7541 0001604 278.8399  81.2271 15.27610479 79385","category":"Starlink"},{"name":"STARLINK-31066","line1":"1 58676U 23211K   26097.34708040  .00002366  00000+0  95453-4 0  9997","line2":"2 58676  43.0028  69.2094 0001871 261.6174  98.4466 15.27585695126419","category":"Starlink"},{"name":"ATHENA EPIC","line1":"1 64871U 25154C   26098.14528363  .00001544  00000+0  15045-3 0  9991","line2":"2 64871  97.6725 163.5968 0008169 114.6789 245.5282 14.93884231 38554","category":"Other"},{"name":"ORBCOMM FM15","line1":"1 25418U 98046F   26098.07334578  .00001156  00000+0  41238-3 0  9992","line2":"2 25418  44.9963 217.4253 0003099 320.6577  39.4046 14.39544574446727","category":"Other"},{"name":"ONEWEB-0617","line1":"1 55158U 23004U   26098.10287524  .00000172  00000+0  45018-3 0  9997","line2":"2 55158  87.8924  34.9961 0001422  75.5054 284.6232 13.11418815156676","category":"Other"},{"name":"STARLINK-32933","line1":"1 63082U 25037F   26097.94316955  .00003053  00000+0  26353-3 0  9994","line2":"2 63082  70.0009 280.7011 0002678 270.4208  89.6644 14.98338002 62926","category":"Starlink"},{"name":"IRIDIUM 33 DEB","line1":"1 34107U 97051DS  23178.13045684  .00006776  00000+0  12691-2 0  9995","line2":"2 34107  86.3773  32.4076 0010445 167.4766 321.2514 14.64668099759220","category":"Other"},{"name":"ONEWEB-0353","line1":"1 49282U 21090D   26097.95398119  .00000157  00000+0  38785-3 0  9992","line2":"2 49282  87.8935 303.7228 0001917  91.0767 269.0583 13.14501393218352","category":"Other"},{"name":"STARLINK-31677","line1":"1 59749U 24090V   26098.15683980  .00002169  00000+0  88351-4 0  9990","line2":"2 59749  43.0019  17.3482 0001063 295.7535  64.3207 15.27568094107933","category":"Starlink"},{"name":"SDA_1678","line1":"1 65988U 25230Q   26098.18959532  .00000293  00000+0  24754-3 0  9993","line2":"2 65988  81.2974 276.4674 0003752  58.5172 301.6352 13.85330106 24130","category":"Other"},{"name":"UNKNOWN","line1":"1 81732U          23346.47602842  .00073214  00000+0  30305-2 0  9991","line2":"2 81732  65.7163  16.3153 0128170 230.7745 128.1956 15.16259076536173","category":"Other"},{"name":"FENGYUN 1C DEB","line1":"1 30437U 99025AEY 26098.07691457  .00020808  00000+0  19189-2 0  9993","line2":"2 30437  98.9064 137.8304 0032166  92.0302 297.0593 14.94307539  9194","category":"Weather"},{"name":"COSMOS 2251 DEB","line1":"1 35278U 93036AJG 23178.35602495  .00015068  00000+0  27325-2 0  9991","line2":"2 35278  74.0422  33.8336 0040018 295.5878 238.1909 14.65744852746228","category":"Other"},{"name":"STARLINK-3399","line1":"1 51121U 22005T   26097.88244047  .00001082  00000+0  86032-4 0  9993","line2":"2 51121  53.2175 158.0803 0001371  86.0965 274.0184 15.08839613233284","category":"Starlink"},{"name":"FENGYUN 1C DEB","line1":"1 29733U 99025X   26097.84968559  .00001400  00000+0  24126-2 0  9998","line2":"2 29733  99.2118 141.2400 0563338 293.7737 253.8441 12.96662499906246","category":"Weather"},{"name":"MERIDIAN 9","line1":"1 45254U 20015A   26096.68277966 -.00000054  00000+0  00000+0 0  9990","line2":"2 45254  65.5066 326.5925 6881134 279.1161  14.7466  2.00602675 44857","category":"Other"},{"name":"ONEWEB-0643","line1":"1 55807U 23029M   26097.81125828 -.00000052  00000+0 -17548-3 0  9996","line2":"2 55807  87.8930 303.7840 0002159  72.5272 287.6094 13.14501060150147","category":"Other"},{"name":"FENGYUN 1C DEB","line1":"1 31163U 99025BHR 26096.90443897  .00001404  00000+0  52799-3 0  9999","line2":"2 31163  98.9718 333.5102 0054023 279.0003  80.5068 14.32402305663905","category":"Weather"},{"name":"FLOCK 4S-2","line1":"1 47498U 21006CP  23302.15282453  .01008939  44480-3  30896-2 0  9992","line2":"2 47498  97.3414   8.1133 0007573 282.2408  77.8018 15.91922470153792","category":"Other"},{"name":"GALILEO104 [GAL]","line1":"1 38858C 12055B   24170.01020833 -.00000000  00000-0  00000-0 0  1708","line2":"2 38858  55.4156 121.7581 0001481 313.3657 182.5612  1.64592169    16","category":"GPS"},{"name":"CZ-2C R/B","line1":"1 53131U 22082D   24121.73809966  .27546320  26177-5  17149-3 0  9997","line2":"2 53131  97.2894 155.4295 0009912 254.5387 203.8173 16.54112396101633","category":"Other"},{"name":"STARLINK-30277","line1":"1 57645U 23122P   26098.15625123  .00004737  00000+0  18150-3 0  9995","line2":"2 57645  42.9994 143.9859 0001284 263.3431  96.7275 15.27588376148384","category":"Starlink"},{"name":"FENGYUN 1C DEB","line1":"1 32186U 99025CUG 26096.42025896  .00001402  00000+0  11235-2 0  9994","line2":"2 32186  99.5939 153.0739 0271427 261.0173 114.7824 13.76785351641887","category":"Weather"},{"name":"STARLINK-2576","line1":"1 48400U 21038AZ  26097.69225529  .00007368  00000+0  26042-3 0  9994","line2":"2 48400  53.1581 197.8989 0001154  88.9665 271.1468 15.30227894271881","category":"Starlink"},{"name":"STARLINK-33775","line1":"1 63852U 25093S   25136.94937979  .09441839  90363-5  32739-2 0  9997","line2":"2 63852  43.0067 319.1024 0008186 288.6553 191.5194 16.24254455  2455","category":"Starlink"},{"name":"YAM-9","line1":"1 66694U 25276AE  26098.16391181  .00006004  00000+0  33148-3 0  9999","line2":"2 66694  97.4239 172.4014 0008993 184.6592 175.4558 15.14261392 19751","category":"Other"},{"name":"SL-6 R/B(2)","line1":"1 17081U 86089D   26092.06111822 -.00000076  00000+0  00000+0 0  9990","line2":"2 17081  63.5615 135.8118 6914784 252.8855  25.7916  1.95709624281314","category":"Other"},{"name":"CZ-3B DEB","line1":"1 42471U 11077AL  26097.68449378 -.00000029  00000+0  29867-2 0  9992","line2":"2 42471  26.4724 329.0665 7460497  91.4561 346.1051  1.89263308 33353","category":"Other"},{"name":"STARLINK-5135","line1":"1 54005U 22125AT  26098.14778553 -.00000316  00000+0 -17791-5 0  9992","line2":"2 54005  53.2165  81.5972 0001555  86.3821 273.7349 15.08838444193917","category":"Starlink"},{"name":"STARLINK-31151","line1":"1 58742U 24005Q   26098.16632879  .00000049  00000+0  11303-4 0  9998","line2":"2 58742  43.0031  53.1254 0001483 273.1959  86.8723 15.27576421125047","category":"Starlink"},{"name":"STARLINK-32480","line1":"1 62039U 24216H   26098.05034175  .00021601  00000+0  79196-3 0  9999","line2":"2 62039  43.0017  90.7076 0001409 264.5481  95.5210 15.27589196 77201","category":"Starlink"},{"name":"COSMOS 2251 DEB","line1":"1 35591U 93036AMJ 23177.38504638  .00030889  00000+0  40168-2 0  9999","line2":"2 35591  73.9726 221.2599 0029497 225.0974 134.7808 14.80229103750754","category":"Other"},{"name":"ONEWEB-0442","line1":"1 51636U 22012Q   26098.19146977 -.00000011  00000+0 -60877-4 0  9992","line2":"2 51636  87.9185  19.7795 0001220  81.9444 278.1826 13.17651874204456","category":"Other"},{"name":"STARLINK-34726","line1":"1 64935U 25158D   26098.16746279 -.00008687  00000+0 -59831-3 0  9994","line2":"2 64935  97.6031 323.1742 0001331  90.5711 269.5668 15.05667415 39798","category":"Starlink"},{"name":"2026-027D","line1":"1 67749U 26027D   26098.15227872  .00009466  00000+0  45663-3 0  9990","line2":"2 67749  97.4956 226.9153 0011592 107.3368 252.9135 15.18850291  8284","category":"Other"},{"name":"FENGYUN 1C DEB","line1":"1 29818U 99025DL  26097.60241610  .00000427  00000+0  27606-3 0  9993","line2":"2 29818  98.7072 335.3369 0115471  60.3074 321.0914 14.04595342984361","category":"Weather"},{"name":"ONEWEB-0090","line1":"1 45427U 20020D   26098.09622598 -.00000213  00000+0 -63584-3 0  9998","line2":"2 45427  87.8923  34.9986 0001933  78.1163 282.0182 13.11418743293484","category":"Other"},{"name":"STARLINK-5913","line1":"1 55937U 23037Z   26098.02773185  .00000797  00000+0  74588-4 0  9990","line2":"2 55937  70.0007 210.5276 0003111 269.8829  90.1973 14.98331262168371","category":"Starlink"},{"name":"FENGYUN 1C DEB","line1":"1 31243U 99025BLZ 26096.38120741  .00001372  00000+0  82340-3 0  9999","line2":"2 31243  98.7360 137.9454 0065565 203.9233 155.8886 14.07486121709203","category":"Weather"},{"name":"STARLINK-1969","line1":"1 47570U 21009Y   23362.27644487 -.00004460  00000+0 -28064-3 0  9991","line2":"2 47570  53.0549   3.7933 0001610  80.1071 280.0100 15.06410653160741","category":"Starlink"},{"name":"STARLINK-5840","line1":"1 57231U 23094P   26098.04859273  .00002051  00000+0  86139-4 0  9997","line2":"2 57231  43.0006 225.0698 0000995 270.4028  89.6709 15.26728048151606","category":"Starlink"},{"name":"2024-095D","line1":"1 59813U 24095D   26073.43859705  .02028235  37939-2  21941-2 0  9999","line2":"2 59813  97.5254 178.3175 0009077 281.6240  78.4024 16.10841119101658","category":"Other"},{"name":"STARLINK-32952","line1":"1 63146U 25043Q   26098.04846022  .00031096  00000+0  11352-2 0  9997","line2":"2 63146  43.0011 217.2328 0001590 266.0659  94.0011 15.27568166 62409","category":"Starlink"},{"name":"EUTELSAT 7B","line1":"1 39163U 13022A   26098.08239778  .00000051  00000+0  00000+0 0  9993","line2":"2 39163   0.0695   6.7398 0006174   6.9425 219.3436  1.00274140 47245","category":"Other"}]}